OBJECT_NAME,OBJECT_ID,EPOCH,MEAN_MOTION,ECCENTRICITY,INCLINATION,RA_OF_ASC_NODE,ARG_OF_PERICENTER,MEAN_ANOMALY,EPHEMERIS_TYPE,CLASSIFICATION_TYPE,NORAD_CAT_ID,ELEMENT_SET_NO,REV_AT_EPOCH,BSTAR,MEAN_MOTION_DOT,MEAN_MOTION_DDOT
STARLINK-34328,2025-117T,2026-07-02T12:01:45.182496,15.34390650,.00011004,53.1590,225.6226,84.8093,275.3035,0,U,64220,999,6211,.58613181E-3,.19473E-3,0
STARLINK-34326,2025-117U,2026-07-02T13:26:27.631392,15.34391779,.00013021,53.1583,225.2819,84.3594,275.7557,0,U,64221,999,6215,.69681393E-3,.23234E-3,0
STARLINK-34318,2025-117V,2026-07-02T12:59:11.667264,15.34396350,.00011163,53.1567,225.1626,74.4479,285.6646,0,U,64222,999,6212,.62242823E-3,.20709E-3,0
STARLINK-34337,2025-117W,2026-07-02T13:20:22.809120,15.34370869,.00007062,53.1574,225.2553,114.4461,245.6616,0,U,64223,999,6212,-.10701066E-3,-.3986E-4,0
STARLINK-34304,2025-117X,2026-07-02T08:38:43.781280,15.30204843,.00008821,53.1568,226.8714,84.0968,276.0134,0,U,64224,999,6211,.67169028E-3,.1959E-3,0
STARLINK-34289,2025-117Y,2026-07-02T11:43:35.406336,15.34382694,.00010046,53.1573,225.5439,100.4532,259.6584,0,U,64225,999,6214,.63853999E-3,.21247E-3,0
STARLINK-34347,2025-117Z,2026-07-02T10:30:59.706720,15.34357681,.00010183,53.1585,225.9382,93.5971,266.5148,0,U,64226,999,6210,.69917852E-3,.23288E-3,0
STARLINK-34330,2025-117AA,2026-07-02T13:26:57.545664,15.30241494,.00013006,53.1564,225.9859,79.7869,280.3278,0,U,64227,999,6211,.73131738E-3,.2139E-3,0
STARLINK-34167,2025-117AB,2026-07-02T08:20:07.717056,15.34404228,.00010501,53.1566,224.6658,98.0994,262.0127,0,U,64228,999,6214,.84289391E-3,.28213E-3,0
STARLINK-34241,2025-117AC,2026-07-02T12:53:08.456352,15.34406854,.00010234,53.1569,225.2002,84.2804,275.8315,0,U,64229,999,6215,.59474755E-3,.19776E-3,0
STARLINK-11686 [DTC],2025-119A,2026-07-02T12:50:52.266624,15.70843476,.0001557,43.0006,237.1608,273.2450,86.8239,0,U,64233,999,6330,.1159257E-2,.151055E-2,0
STARLINK-11682 [DTC],2025-119B,2026-07-02T07:06:14.914944,15.70711495,.00005955,42.9974,238.8183,343.6072,16.4776,0,U,64234,999,6326,.28210933E-2,.376418E-2,0
STARLINK-11675 [DTC],2025-119C,2026-07-02T13:58:10.790976,15.70832704,.00015947,43.0006,236.6414,283.2482,76.8208,0,U,64235,999,6331,.6301582E-3,.81178E-3,0
STARLINK-11691 [DTC],2025-119D,2026-07-02T10:32:07.320768,15.70876822,.00019359,42.9992,237.2794,272.4915,87.5731,0,U,64236,999,6329,.12172677E-2,.159015E-2,0
STARLINK-11670 [DTC],2025-119E,2026-07-02T12:49:33.569184,15.70805180,.0001573,42.9998,237.1539,290.9368,69.1331,0,U,64237,999,6330,.77574101E-4,.9502E-4,0
STARLINK-11708 [DTC],2025-119F,2026-07-02T12:57:14.581440,15.70902638,.0002659,42.9985,237.1954,38.1904,321.9152,0,U,64238,999,6330,.11275206E-2,.147216E-2,0
STARLINK-11683 [DTC],2025-119G,2026-07-02T13:19:57.268416,15.70813589,.0001474,42.9990,236.4278,268.1154,91.9545,0,U,64239,999,6331,.11342199E-2,.147534E-2,0
STARLINK-11684 [DTC],2025-119H,2026-07-02T14:05:50.006112,15.70838879,.00008282,42.9988,236.6821,303.1933,56.8855,0,U,64240,999,6331,.82739413E-3,.107088E-2,0
STARLINK-11689 [DTC],2025-119J,2026-07-02T13:50:31.532640,15.70928128,.00044935,42.9979,236.5979,283.0270,77.0096,0,U,64241,999,6331,.16577882E-2,.218839E-2,0
STARLINK-11690 [DTC],2025-119K,2026-07-02T12:11:19.314816,15.70913514,.00031808,42.9985,236.9376,271.2694,88.7809,0,U,64242,999,6330,.15819086E-2,.208367E-2,0
STARLINK-11694 [DTC],2025-119L,2026-07-02T07:19:04.440000,15.76063075,.00061014,42.9915,237.9779,44.5193,315.6166,0,U,64243,999,6327,.13113473E-2,.215843E-2,0
STARLINK-11710 [DTC],2025-119M,2026-07-02T14:13:28.752960,15.70852004,.00011759,42.9988,236.7237,306.6455,53.4305,0,U,64244,999,6331,.12830821E-2,.167633E-2,0
STARLINK-11704 [DTC],2025-119N,2026-07-02T13:27:36.102528,15.70828242,.00016487,42.9988,236.4670,279.8748,80.1933,0,U,64245,999,6331,.98452009E-3,.127776E-2,0
STARLINK-34203,2025-119P,2026-07-02T14:16:50.166048,15.27578045,.00026631,43.0031,18.0405,287.5216,72.5345,0,U,64246,999,6175,.96562557E-3,.26405E-3,0
STARLINK-33865,2025-119Q,2026-07-01T22:13:04.574496,15.27563491,.0001475,43.0022,21.6105,268.3143,91.7540,0,U,64247,999,6161,.12332415E-2,.33813E-3,0
STARLINK-34234,2025-119R,2026-07-02T14:31:37.986528,15.27581382,.00018211,43.0003,18.1054,271.8783,88.1860,0,U,64248,999,6174,.10228202E-2,.27992E-3,0
STARLINK-34256,2025-119S,2026-07-02T14:05:43.443168,15.27549651,.00010631,43.0001,17.9725,248.1680,111.9059,0,U,64249,999,6174,.42847116E-3,.11536E-3,0
STARLINK-34229,2025-119T,2026-07-01T20:07:38.867520,15.27618430,.00006315,42.9975,22.6816,253.5744,106.5038,0,U,64250,999,6162,.84911389E-3,.23205E-3,0
STARLINK-34224,2025-119U,2026-07-02T14:00:10.406592,15.27554946,.00015274,43.0020,17.9487,264.5853,95.4824,0,U,64251,999,6174,.53700942E-3,.14533E-3,0
STARLINK-34215,2025-119V,2026-07-02T12:51:55.665216,15.27606310,.00018161,43.0043,18.4554,262.6183,97.4463,0,U,64252,999,6173,.85910476E-3,.23473E-3,0
