STARLINK-34328          
1 64220U 25117T   26183.50121739  .00019473  00000+0  58613-3 0  9997
2 64220  53.1590 225.6226 0001100  84.8093 275.3035 15.34390650 62119
STARLINK-34326          
1 64221U 25117U   26183.56004203  .00023234  00000+0  69681-3 0  9997
2 64221  53.1583 225.2819 0001302  84.3594 275.7557 15.34391779 62151
STARLINK-34318          
1 64222U 25117V   26183.54110726  .00020709  00000+0  62243-3 0  9995
2 64222  53.1567 225.1626 0001116  74.4479 285.6646 15.34396350 62120
STARLINK-34337          
1 64223U 25117W   26183.55581955 -.00003986  00000+0 -10701-3 0  9995
2 64223  53.1574 225.2553 0000706 114.4461 245.6616 15.34370869 62129
STARLINK-34304          
1 64224U 25117X   26183.36022895  .00019590  00000+0  67169-3 0  9994
2 64224  53.1568 226.8714 0000882  84.0968 276.0134 15.30204843 62114
STARLINK-34289          
1 64225U 25117Y   26183.48860424  .00021247  00000+0  63854-3 0  9995
2 64225  53.1573 225.5439 0001004 100.4532 259.6584 15.34382694 62142
STARLINK-34347          
1 64226U 25117Z   26183.43819105  .00023288  00000+0  69918-3 0  9995
2 64226  53.1585 225.9382 0001018  93.5971 266.5148 15.34357681 62108
STARLINK-34330          
1 64227U 25117AA  26183.56038826  .00021390  00000+0  73132-3 0  9998
2 64227  53.1564 225.9859 0001300  79.7869 280.3278 15.30241494 62110
STARLINK-34167          
1 64228U 25117AB  26183.34731154  .00028213  00000+0  84289-3 0  9995
2 64228  53.1566 224.6658 0001050  98.0994 262.0127 15.34404228 62144
STARLINK-34241          
1 64229U 25117AC  26183.53690343  .00019776  00000+0  59475-3 0  9994
2 64229  53.1569 225.2002 0001023  84.2804 275.8315 15.34406854 62154
STARLINK-11686 [DTC]    
1 64233U 25119A   26183.53532716  .00151055  00000+0  11593-2 0  9995
2 64233  43.0006 237.1608 0001557 273.2450  86.8239 15.70843476 63304
STARLINK-11682 [DTC]    
1 64234U 25119B   26183.29600596  .00376418  00000+0  28211-2 0  9998
2 64234  42.9974 238.8183 0000595 343.6072  16.4776 15.70711495 63261
STARLINK-11675 [DTC]    
1 64235U 25119C   26183.58206934  .00081178  00000+0  63016-3 0  9998
2 64235  43.0006 236.6414 0001594 283.2482  76.8208 15.70832704 63310
STARLINK-11691 [DTC]    
1 64236U 25119D   26183.43897362  .00159015  00000+0  12173-2 0  9997
2 64236  42.9992 237.2794 0001935 272.4915  87.5731 15.70876822 63297
STARLINK-11670 [DTC]    
1 64237U 25119E   26183.53441631  .00009502  00000+0  77574-4 0  9996
2 64237  42.9998 237.1539 0001573 290.9368  69.1331 15.70805180 63308
STARLINK-11708 [DTC]    
1 64238U 25119F   26183.53975210  .00147216  00000+0  11275-2 0  9991
2 64238  42.9985 237.1954 0002659  38.1904 321.9152 15.70902638 63306
STARLINK-11683 [DTC]    
1 64239U 25119G   26183.55552394  .00147534  00000+0  11342-2 0  9996
2 64239  42.9990 236.4278 0001474 268.1154  91.9545 15.70813589 63317
STARLINK-11684 [DTC]    
1 64240U 25119H   26183.58738433  .00107088  00000+0  82739-3 0  9990
2 64240  42.9988 236.6821 0000828 303.1933  56.8855 15.70838879 63312
STARLINK-11689 [DTC]    
1 64241U 25119J   26183.57675385  .00218839  00000+0  16578-2 0  9990
2 64241  42.9979 236.5979 0004493 283.0270  77.0096 15.70928128 63317
STARLINK-11690 [DTC]    
1 64242U 25119K   26183.50786244  .00208367  00000+0  15819-2 0  9993
2 64242  42.9985 236.9376 0003180 271.2694  88.7809 15.70913514 63304
STARLINK-11694 [DTC]    
1 64243U 25119L   26183.30491250  .00215843  00000+0  13113-2 0  9994
2 64243  42.9915 237.9779 0006101  44.5193 315.6166 15.76063075 63275
STARLINK-11710 [DTC]    
1 64244U 25119M   26183.59269390  .00167633  00000+0  12831-2 0  9993
2 64244  42.9988 236.7237 0001175 306.6455  53.4305 15.70852004 63310
STARLINK-11704 [DTC]    
1 64245U 25119N   26183.56083452  .00127776  00000+0  98452-3 0  9992
2 64245  42.9988 236.4670 0001648 279.8748  80.1933 15.70828242 63311
STARLINK-34203          
1 64246U 25119P   26183.59502507  .00026405  00000+0  96563-3 0  9991
2 64246  43.0031  18.0405 0002663 287.5216  72.5345 15.27578045 61750
STARLINK-33865          
1 64247U 25119Q   26182.92574739  .00033813  00000+0  12332-2 0  9996
2 64247  43.0022  21.6105 0001475 268.3143  91.7540 15.27563491 61618
STARLINK-34234          
1 64248U 25119R   26183.60530077  .00027992  00000+0  10228-2 0  9993
2 64248  43.0003  18.1054 0001821 271.8783  88.1860 15.27581382 61744
STARLINK-34256          
1 64249U 25119S   26183.58730837  .00011536  00000+0  42847-3 0  9997
2 64249  43.0001  17.9725 0001063 248.1680 111.9059 15.27549651 61744
STARLINK-34229          
1 64250U 25119T   26182.83864430  .00023205  00000+0  84911-3 0  9997
2 64250  42.9975  22.6816 0000631 253.5744 106.5038 15.27618430 61625
STARLINK-34224          
1 64251U 25119U   26183.58345378  .00014533  00000+0  53701-3 0  9993
2 64251  43.0020  17.9487 0001527 264.5853  95.4824 15.27554946 61741
STARLINK-34215          
1 64252U 25119V   26183.53606094  .00023473  00000+0  85910-3 0  9994
2 64252  43.0043  18.4554 0001816 262.6183  97.4463 15.27606310 61737
